DELTA 2 R/B(1)          
1 20453U 90008B   26020.66233270  .00102872  00000+0  14621-2 0  9995
2 20453  35.6057 128.4604 0101125 174.2993 185.8914 15.49270429918661
COSMOS 2058             
1 20465U 90010A   26020.70558232  .00009070  00000+0  54276-3 0  9991
2 20465  82.4668  94.6971 0010978 133.3020 226.9127 15.10862028934992
SL-14 R/B               
1 20466U 90010B   26020.86657199  .00000863  00000+0  10163-3 0  9999
2 20466  82.5046 312.3037 0021388  96.8004 263.5646 14.83516866921397
SL-14 R/B               
1 20511U 90018B   26020.77072557  .00000750  00000+0  91361-4 0  9992
2 20511  82.5207 267.8877 0014966 248.2166 111.7456 14.82092591915488
HST                     
1 20580U 90037B   26020.64515410  .00016760  00000+0  57579-3 0  9995
2 20580  28.4680   7.5542 0001636 298.8857  61.1574 15.28636273765950
SL-16 R/B               
1 20625U 90046B   26020.76807442 -.00000105  00000+0 -29627-4 0  9999
2 20625  70.9996  38.5562 0013795   6.7537 353.3769 14.15008008841612
COSMOS 2084             
1 20663U 90055A   26020.76554380  .00007284  00000+0  51674-3 0  9990
2 20663  62.7910 138.9912 0024956 180.7051 179.4018 15.05301580929104
SL-6 R/B(2)             
1 20666U 90055D   26020.81658371  .00004409  00000+0  33682-3 0  9999
2 20666  62.7836  56.6167 0017832 331.5057  28.5066 15.03297619930990
SL-8 R/B                
1 20775U 90078B   26020.77073393  .00037311  00000+0  11224-2 0  9990
2 20775  82.9059 294.3440 0368582 174.5573 185.9837 14.87315532802174
SL-8 R/B                
1 21088U 91006B   26020.98640432 -.00000022  00000+0 -37357-4 0  9995
2 21088  82.9410 205.5178 0022741 165.9275 313.4574 13.77491621757506
OKEAN-3                 
1 21397U 91039A   26020.99551625  .00006823  00000+0  48554-3 0  9993
2 21397  82.5150  23.0353 0015916 127.4586 232.8091 15.04390534857869
COSMOS 2151             
1 21422U 91042A   26020.92026260  .00005040  00000+0  40405-3 0  9998
2 21422  82.4990 129.7446 0011833 215.7419 144.3014 14.99883406856034
