CCSDS_OMM_VERS = 2.0
CREATION_DATE  = 
ORIGINATOR     = 

OBJECT_NAME    = DELTA 2 R/B(1)
OBJECT_ID      = 1990-008B
CENTER_NAME    = EARTH
REF_FRAME      = TEME
TIME_SYSTEM    = UTC
MEAN_ELEMENT_THEORY = SGP/SGP4

EPOCH          = 2026-01-20T15:53:45.545280
MEAN_MOTION    = 15.49270429
ECCENTRICITY   = .01011256
INCLINATION    = 35.6057
RA_OF_ASC_NODE = 128.4604
ARG_OF_PERICENTER = 174.2993
MEAN_ANOMALY   = 185.8914

EPHEMERIS_TYPE = 0
CLASSIFICATION_TYPE = U
NORAD_CAT_ID   = 20453
ELEMENT_SET_NO = 999
REV_AT_EPOCH   = 91866
BSTAR          = .14621494E-2
MEAN_MOTION_DOT = .102872E-2
MEAN_MOTION_DDOT = 0

CCSDS_OMM_VERS = 2.0
CREATION_DATE  = 
ORIGINATOR     = 

OBJECT_NAME    = COSMOS 2058
OBJECT_ID      = 1990-010A
CENTER_NAME    = EARTH
REF_FRAME      = TEME
TIME_SYSTEM    = UTC
MEAN_ELEMENT_THEORY = SGP/SGP4

EPOCH          = 2026-01-20T16:56:02.312448
MEAN_MOTION    = 15.10862028
ECCENTRICITY   = .00109789
INCLINATION    = 82.4668
RA_OF_ASC_NODE = 94.6971
ARG_OF_PERICENTER = 133.3020
MEAN_ANOMALY   = 226.9127

EPHEMERIS_TYPE = 0
CLASSIFICATION_TYPE = U
NORAD_CAT_ID   = 20465
ELEMENT_SET_NO = 999
REV_AT_EPOCH   = 93499
BSTAR          = .54276422E-3
MEAN_MOTION_DOT = .907E-4
MEAN_MOTION_DDOT = 0

CCSDS_OMM_VERS = 2.0
CREATION_DATE  = 
ORIGINATOR     = 

OBJECT_NAME    = SL-14 R/B
OBJECT_ID      = 1990-010B
CENTER_NAME    = EARTH
REF_FRAME      = TEME
TIME_SYSTEM    = UTC
MEAN_ELEMENT_THEORY = SGP/SGP4

EPOCH          = 2026-01-20T20:47:51.819936
MEAN_MOTION    = 14.83516866
ECCENTRICITY   = .00213889
INCLINATION    = 82.5046
RA_OF_ASC_NODE = 312.3037
ARG_OF_PERICENTER = 96.8004
MEAN_ANOMALY   = 263.5646

EPHEMERIS_TYPE = 0
CLASSIFICATION_TYPE = U
NORAD_CAT_ID   = 20466
ELEMENT_SET_NO = 999
REV_AT_EPOCH   = 92139
BSTAR          = .10163054E-3
MEAN_MOTION_DOT = .863E-5
MEAN_MOTION_DDOT = 0

CCSDS_OMM_VERS = 2.0
CREATION_DATE  = 
ORIGINATOR     = 

OBJECT_NAME    = SL-14 R/B
OBJECT_ID      = 1990-018B
CENTER_NAME    = EARTH
REF_FRAME      = TEME
TIME_SYSTEM    = UTC
MEAN_ELEMENT_THEORY = SGP/SGP4

EPOCH          = 2026-01-20T18:29:50.689248
MEAN_MOTION    = 14.82092591
ECCENTRICITY   = .0014966
INCLINATION    = 82.5207
RA_OF_ASC_NODE = 267.8877
ARG_OF_PERICENTER = 248.2166
MEAN_ANOMALY   = 111.7456

EPHEMERIS_TYPE = 0
CLASSIFICATION_TYPE = U
NORAD_CAT_ID   = 20511
ELEMENT_SET_NO = 999
REV_AT_EPOCH   = 91548
BSTAR          = .91361084E-4
MEAN_MOTION_DOT = .75E-5
MEAN_MOTION_DDOT = 0

CCSDS_OMM_VERS = 2.0
CREATION_DATE  = 
ORIGINATOR     = 

OBJECT_NAME    = HST
OBJECT_ID      = 1990-037B
CENTER_NAME    = EARTH
REF_FRAME      = TEME
TIME_SYSTEM    = UTC
MEAN_ELEMENT_THEORY = SGP/SGP4

EPOCH          = 2026-01-20T15:29:01.314240
MEAN_MOTION    = 15.28636273
ECCENTRICITY   = .00016368
INCLINATION    = 28.4680
RA_OF_ASC_NODE = 7.5542
ARG_OF_PERICENTER = 298.8857
MEAN_ANOMALY   = 61.1574

EPHEMERIS_TYPE = 0
CLASSIFICATION_TYPE = U
NORAD_CAT_ID   = 20580
ELEMENT_SET_NO = 999
REV_AT_EPOCH   = 76595
BSTAR          = .57578703E-3
MEAN_MOTION_DOT = .1676E-3
MEAN_MOTION_DDOT = 0

CCSDS_OMM_VERS = 2.0
CREATION_DATE  = 
ORIGINATOR     = 

OBJECT_NAME    = SL-16 R/B
OBJECT_ID      = 1990-046B
CENTER_NAME    = EARTH
REF_FRAME      = TEME
TIME_SYSTEM    = UTC
MEAN_ELEMENT_THEORY = SGP/SGP4

EPOCH          = 2026-01-20T18:26:01.629888
MEAN_MOTION    = 14.15008008
ECCENTRICITY   = .00137953
INCLINATION    = 70.9996
RA_OF_ASC_NODE = 38.5562
ARG_OF_PERICENTER = 6.7537
MEAN_ANOMALY   = 353.3769

EPHEMERIS_TYPE = 0
CLASSIFICATION_TYPE = U
NORAD_CAT_ID   = 20625
ELEMENT_SET_NO = 999
REV_AT_EPOCH   = 84161
BSTAR          = -.29627477E-4
MEAN_MOTION_DOT = -.105E-5
MEAN_MOTION_DDOT = 0

CCSDS_OMM_VERS = 2.0
CREATION_DATE  = 
ORIGINATOR     = 

OBJECT_NAME    = COSMOS 2084
OBJECT_ID      = 1990-055A
CENTER_NAME    = EARTH
REF_FRAME      = TEME
TIME_SYSTEM    = UTC
MEAN_ELEMENT_THEORY = SGP/SGP4

EPOCH          = 2026-01-20T18:22:22.984320
MEAN_MOTION    = 15.05301580
ECCENTRICITY   = .00249561
INCLINATION    = 62.7910
RA_OF_ASC_NODE = 138.9912
ARG_OF_PERICENTER = 180.7051
MEAN_ANOMALY   = 179.4018

EPHEMERIS_TYPE = 0
CLASSIFICATION_TYPE = U
NORAD_CAT_ID   = 20663
ELEMENT_SET_NO = 999
REV_AT_EPOCH   = 92910
BSTAR          = .51674051E-3
MEAN_MOTION_DOT = .7284E-4
MEAN_MOTION_DDOT = 0

CCSDS_OMM_VERS = 2.0
CREATION_DATE  = 
ORIGINATOR     = 

OBJECT_NAME    = SL-6 R/B(2)
OBJECT_ID      = 1990-055D
CENTER_NAME    = EARTH
REF_FRAME      = TEME
TIME_SYSTEM    = UTC
MEAN_ELEMENT_THEORY = SGP/SGP4

EPOCH          = 2026-01-20T19:35:52.832544
MEAN_MOTION    = 15.03297619
ECCENTRICITY   = .00178324
INCLINATION    = 62.7836
RA_OF_ASC_NODE = 56.6167
ARG_OF_PERICENTER = 331.5057
MEAN_ANOMALY   = 28.5066

EPHEMERIS_TYPE = 0
CLASSIFICATION_TYPE = U
NORAD_CAT_ID   = 20666
ELEMENT_SET_NO = 999
REV_AT_EPOCH   = 93099
BSTAR          = .33682476E-3
MEAN_MOTION_DOT = .4409E-4
MEAN_MOTION_DDOT = 0

CCSDS_OMM_VERS = 2.0
CREATION_DATE  = 
ORIGINATOR     = 

OBJECT_NAME    = SL-8 R/B
OBJECT_ID      = 1990-078B
CENTER_NAME    = EARTH
REF_FRAME      = TEME
TIME_SYSTEM    = UTC
MEAN_ELEMENT_THEORY = SGP/SGP4

EPOCH          = 2026-01-20T18:29:51.411552
MEAN_MOTION    = 14.87315532
ECCENTRICITY   = .03685828
INCLINATION    = 82.9059
RA_OF_ASC_NODE = 294.3440
ARG_OF_PERICENTER = 174.5573
MEAN_ANOMALY   = 185.9837

EPHEMERIS_TYPE = 0
CLASSIFICATION_TYPE = U
NORAD_CAT_ID   = 20775
ELEMENT_SET_NO = 999
REV_AT_EPOCH   = 80217
BSTAR          = .11224219E-2
MEAN_MOTION_DOT = .37311E-3
MEAN_MOTION_DDOT = 0

CCSDS_OMM_VERS = 2.0
CREATION_DATE  = 
ORIGINATOR     = 

OBJECT_NAME    = SL-8 R/B
OBJECT_ID      = 1991-006B
CENTER_NAME    = EARTH
REF_FRAME      = TEME
TIME_SYSTEM    = UTC
MEAN_ELEMENT_THEORY = SGP/SGP4

EPOCH          = 2026-01-20T23:40:25.333248
MEAN_MOTION    = 13.77491621
ECCENTRICITY   = .00227411
INCLINATION    = 82.9410
RA_OF_ASC_NODE = 205.5178
ARG_OF_PERICENTER = 165.9275
MEAN_ANOMALY   = 313.4574

EPHEMERIS_TYPE = 0
CLASSIFICATION_TYPE = U
NORAD_CAT_ID   = 21088
ELEMENT_SET_NO = 999
REV_AT_EPOCH   = 75750
BSTAR          = -.37357246E-4
MEAN_MOTION_DOT = -.22E-6
MEAN_MOTION_DDOT = 0

CCSDS_OMM_VERS = 2.0
CREATION_DATE  = 
ORIGINATOR     = 

OBJECT_NAME    = OKEAN-3
OBJECT_ID      = 1991-039A
CENTER_NAME    = EARTH
REF_FRAME      = TEME
TIME_SYSTEM    = UTC
MEAN_ELEMENT_THEORY = SGP/SGP4

EPOCH          = 2026-01-20T23:53:32.604000
MEAN_MOTION    = 15.04390534
ECCENTRICITY   = .00159169
INCLINATION    = 82.5150
RA_OF_ASC_NODE = 23.0353
ARG_OF_PERICENTER = 127.4586
MEAN_ANOMALY   = 232.8091

EPHEMERIS_TYPE = 0
CLASSIFICATION_TYPE = U
NORAD_CAT_ID   = 21397
ELEMENT_SET_NO = 999
REV_AT_EPOCH   = 85786
BSTAR          = .4855392E-3
MEAN_MOTION_DOT = .6823E-4
MEAN_MOTION_DDOT = 0

CCSDS_OMM_VERS = 2.0
CREATION_DATE  = 
ORIGINATOR     = 

OBJECT_NAME    = COSMOS 2151
OBJECT_ID      = 1991-042A
CENTER_NAME    = EARTH
REF_FRAME      = TEME
TIME_SYSTEM    = UTC
MEAN_ELEMENT_THEORY = SGP/SGP4

EPOCH          = 2026-01-20T22:05:10.688640
MEAN_MOTION    = 14.99883406
ECCENTRICITY   = .00118338
INCLINATION    = 82.4990
RA_OF_ASC_NODE = 129.7446
ARG_OF_PERICENTER = 215.7419
MEAN_ANOMALY   = 144.3014

EPHEMERIS_TYPE = 0
CLASSIFICATION_TYPE = U
NORAD_CAT_ID   = 21422
ELEMENT_SET_NO = 999
REV_AT_EPOCH   = 85603
BSTAR          = .40404928E-3
MEAN_MOTION_DOT = .504E-4
MEAN_MOTION_DDOT = 0

